{
  "norad_id": 64922,
  "name": "STARLINK-34700",
  "history": [
    {
      "epoch": "2026-03-28T18:07:56.368992",
      "apogee_km": 475.9497511243353,
      "perigee_km": 474.48258527808684,
      "latitude_deg": -51.435579923324084,
      "longitude_deg": 24.729298880090937,
      "semi_major_axis_km": 6853.353168201211,
      "eccentricity": 0.00010704,
      "inclination_deg": 53.1565,
      "raan_deg": 257.0496,
      "arg_perigee_deg": 75.1723,
      "mean_anomaly_deg": 284.9396,
      "mean_motion_rev_day": 15.30199632
    }
  ]
}